{
    "week": 293,
    "satellites": [
        {
            "Name": "BEIDOU-3 M28 (C50)",
            "Line1": "1 58654U 23207A   24325.83123982 -.00000019  00000+0  00000+0 0  9993",
            "Line2": "2 58654  55.2438  81.7306 0001736 236.8647 123.1021  1.86232021  6163",
            "SatelliteNumber": "58654",
            "Classification": "U",
            "LaunchYear": "23",
            "LaunchNumber": "207",
            "PieceOfLaunch": "A",
            "EpochYear": "24",
            "EpochDay": 325.83123982,
            "FirstDerivativeMeanMotion": -1.9e-07,
            "SecondDerivativeMeanMotion": "00000+0",
            "BSTAR": "00000+0",
            "SetNumber": "999",
            "Inclination": 55.2438,
            "RAAN": 81.7306,
            "Eccentricity": 0.0001736,
            "ArgumentOfPerigee": 236.8647,
            "MeanAnomaly": 123.1021,
            "MeanMotion": 1.86232021,
            "RevolutionNumber": "616"
        },
        {
            "Name": "BEIDOU-3 M26 (C48)",
            "Line1": "1 58655U 23207B   24325.09359558 -.00000022  00000+0  00000+0 0  9996",
            "Line2": "2 58655  55.2450  81.7413 0003179 230.0767 129.8764  1.86231489  6130",
            "SatelliteNumber": "58655",
            "Classification": "U",
            "LaunchYear": "23",
            "LaunchNumber": "207",
            "PieceOfLaunch": "B",
            "EpochYear": "24",
            "EpochDay": 325.09359558,
            "FirstDerivativeMeanMotion": -2.2e-07,
            "SecondDerivativeMeanMotion": "00000+0",
            "BSTAR": "00000+0",
            "SetNumber": "999",
            "Inclination": 55.245,
            "RAAN": 81.7413,
            "Eccentricity": 0.0003179,
            "ArgumentOfPerigee": 230.0767,
            "MeanAnomaly": 129.8764,
            "MeanMotion": 1.86231489,
            "RevolutionNumber": "613"
        }
    ]
}